[{"OBJECT_NAME":"STARLINK-1954","OBJECT_ID":"2021-009H","EPOCH":"2026-03-09T23:20:25.352160","MEAN_MOTION":15.30849174,"ECCENTRICITY":0.00046184,"INCLINATION":53.0574,"RA_OF_ASC_NODE":8.8654,"ARG_OF_PERICENTER":103.3293,"MEAN_ANOMALY":256.8222,"EPHEMERIS_TYPE":0,"CLASSIFICATION_TYPE":"U","NORAD_CAT_ID":47555,"ELEMENT_SET_NO":999,"REV_AT_EPOCH":28100,"BSTAR":0.0022371791,"MEAN_MOTION_DOT":0.00067883,"MEAN_MOTION_DDOT":0},{"OBJECT_NAME":"STARLINK-35679","OBJECT_ID":"2025-257AE","EPOCH":"2026-03-09T16:28:22.959840","MEAN_MOTION":15.30194471,"ECCENTRICITY":8.862e-5,"INCLINATION":53.1584,"RA_OF_ASC_NODE":216.9791,"ARG_OF_PERICENTER":66.6156,"MEAN_ANOMALY":293.4938,"EPHEMERIS_TYPE":0,"CLASSIFICATION_TYPE":"U","NORAD_CAT_ID":66408,"ELEMENT_SET_NO":999,"REV_AT_EPOCH":1973,"BSTAR":0.0011385542,"MEAN_MOTION_DOT":0.00033508,"MEAN_MOTION_DDOT":0}]
